{"type": "FeatureCollection", "features": [{"type": "Feature", "properties": {"iso3": "IND"}, "geometry": {"type": "Polygon", "coordinates": [[[74, 17], [84, 17], [84, 27], [74, 27], [74, 17]]]}}, {"type": "Feature", "properties": {"iso3": "PAK"}, "geometry": {"type": "Polygon", "coordinates": [[[66, 27], [72, 27], [72, 33], [66, 33], [66, 27]]]}}, {"type": "Feature", "properties": {"iso3": "USA"}, "geometry": {"type": "Polygon", "coordinates": [[[-104, 33], [-92, 33], [-92, 45], [-104, 45], [-104, 33]]]}}, {"type": "Feature", "properties": {"iso3": "CAN"}, "geometry": {"type": "Polygon", "coordinates": [[[-111, 50], [-99, 50], [-99, 62], [-111, 62], [-111, 50]]]}}, {"type": "Feature", "properties": {"iso3": "AUS"}, "geometry": {"type": "Polygon", "coordinates": [[[128, -31], [140, -31], [140, -19], [128, -19], [128, -31]]]}}, {"type": "Feature", "properties": {"iso3": "BRA"}, "geometry": {"type": "Polygon", "coordinates": [[[-58, -16], [-46, -16], [-46, -4], [-58, -4], [-58, -16]]]}}, {"type": "Feature", "properties": {"iso3": "ARG"}, "geometry": {"type": "Polygon", "coordinates": [[[-68, -38], [-60, -38], [-60, -30], [-68, -30], [-68, -38]]]}}, {"type": "Feature", "properties": {"iso3": "MEX"}, "geometry": {"type": "Polygon", "coordinates": [[[-105, 20], [-99, 20], [-99, 26], [-105, 26], [-105, 20]]]}}, {"type": "Feature", "properties": {"iso3": "JAM"}, "geometry": {"type": "Polygon", "coordinates": [[[-77.8, 17.6], [-76.8, 17.6], [-76.8, 18.6], [-77.8, 18.6], [-77.8, 17.6]]]}}, {"type": "Feature", "properties": {"iso3": "CHN"}, "geometry": {"type": "Polygon", "coordinates": [[[99, 30], [109, 30], [109, 40], [99, 40], [99, 30]]]}}, {"type": "Feature", "properties": {"iso3": "MNG"}, "geometry": {"type": "Polygon", "coordinates": [[[101, 43], [107, 43], [107, 49], [101, 49], [101, 43]]]}}, {"type": "Feature", "properties": {"iso3": "IDN"}, "geometry": {"type": "Polygon", "coordinates": [[[110, -5], [118, -5], [118, 3], [110, 3], [110, -5]]]}}, {"type": "Feature", "properties": {"iso3": "THA"}, "geometry": {"type": "Polygon", "coordinates": [[[98, 12], [104, 12], [104, 18], [98, 18], [98, 12]]]}}, {"type": "Feature", "properties": {"iso3": "RUS"}, "geometry": {"type": "Polygon", "coordinates": [[[54, 52], [66, 52], [66, 64], [54, 64], [54, 52]]]}}, {"type": "Feature", "properties": {"iso3": "UKR"}, "geometry": {"type": "Polygon", "coordinates": [[[29.5, 46.5], [34.5, 46.5], [34.5, 51.5], [29.5, 51.5], [29.5, 46.5]]]}}, {"type": "Feature", "properties": {"iso3": "FRA"}, "geometry": {"type": "Polygon", "coordinates": [[[-0.5, 44.0], [4.5, 44.0], [4.5, 49.0], [-0.5, 49.0], [-0.5, 44.0]]]}}, {"type": "Feature", "properties": {"iso3": "DEU"}, "geometry": {"type": "Polygon", "coordinates": [[[7.5, 48.5], [12.5, 48.5], [12.5, 53.5], [7.5, 53.5], [7.5, 48.5]]]}}, {"type": "Feature", "properties": {"iso3": "ESP"}, "geometry": {"type": "Polygon", "coordinates": [[[-6.5, 37.5], [-1.5, 37.5], [-1.5, 42.5], [-6.5, 42.5], [-6.5, 37.5]]]}}, {"type": "Feature", "properties": {"iso3": "POL"}, "geometry": {"type": "Polygon", "coordinates": [[[16.5, 49.5], [21.5, 49.5], [21.5, 54.5], [16.5, 54.5], [16.5, 49.5]]]}}, {"type": "Feature", "properties": {"iso3": "BLX"}, "geometry": {"type": "Polygon", "coordinates": [[[3.5, 49.5], [5.5, 49.5], [5.5, 51.5], [3.5, 51.5], [3.5, 49.5]]]}}, {"type": "Feature", "properties": {"iso3": "SCG"}, "geometry": {"type": "Polygon", "coordinates": [[[19.0, 42.5], [22.0, 42.5], [22.0, 45.5], [19.0, 45.5], [19.0, 42.5]]]}}, {"type": "Feature", "properties": {"iso3": "ETH"}, "geometry": {"type": "Polygon", "coordinates": [[[37, 6], [43, 6], [43, 12], [37, 12], [37, 6]]]}}, {"type": "Feature", "properties": {"iso3": "KEN"}, "geometry": {"type": "Polygon", "coordinates": [[[35, -3], [41, -3], [41, 3], [35, 3], [35, -3]]]}}, {"type": "Feature", "properties": {"iso3": "SOM"}, "geometry": {"type": "Polygon", "coordinates": [[[44, 3], [48, 3], [48, 7], [44, 7], [44, 3]]]}}, {"type": "Feature", "properties": {"iso3": "ZAF"}, "geometry": {"type": "Polygon", "coordinates": [[[22, -32], [28, -32], [28, -26], [22, -26], [22, -32]]]}}, {"type": "Feature", "properties": {"iso3": "NGA"}, "geometry": {"type": "Polygon", "coordinates": [[[5, 6], [11, 6], [11, 12], [5, 12], [5, 6]]]}}, {"type": "Feature", "properties": {"iso3": "SDX"}, "geometry": {"type": "Polygon", "coordinates": [[[26, 9], [34, 9], [34, 17], [26, 17], [26, 9]]]}}, {"type": "Feature", "properties": {"iso3": "EGY"}, "geometry": {"type": "Polygon", "coordinates": [[[27, 24], [33, 24], [33, 30], [27, 30], [27, 24]]]}}, {"type": "Feature", "properties": {"iso3": "LBY"}, "geometry": {"type": "Polygon", "coordinates": [[[14, 24], [20, 24], [20, 30], [14, 30], [14, 24]]]}}, {"type": "Feature", "properties": {"iso3": "TUR"}, "geometry": {"type": "Polygon", "coordinates": [[[32.5, 36.5], [37.5, 36.5], [37.5, 41.5], [32.5, 41.5], [32.5, 36.5]]]}}]}